NORAD_CAT_ID,OBJECT_NAME,OBJECT_TYPE,EPOCH,MEAN_MOTION,ECCENTRICITY,INCLINATION,RA_OF_ASC_NODE,ARG_OF_PERICENTER,MEAN_ANOMALY,BSTAR,MEAN_MOTION_DOT,MEAN_MOTION_DDOT,TLE_LINE0,TLE_LINE1,TLE_LINE2,SEMIMAJOR_AXIS,PERIOD,APOGEE,PERIGEE,DECAYED
53794.0,STARLINK-4730,PAYLOAD,2023-06-11 18:40:15,15.08836193,0.0001047,53.2167,91.724,98.3243,261.7867,9.8861e-05,1.286e-05,0.0,0 STARLINK-4730,1 53794U 22111X   23162.77796214  .00001286  00000-0  98861-4 0  9995,2 53794  53.2167  91.7240 0001047  98.3243 261.7867 15.08836193 42432,6917.892,95.438,540.481,539.033,0.0
53794.0,STARLINK-4730,PAYLOAD,2023-06-12 04:12:34,15.08842701,0.0001042,53.2167,89.9399,95.8063,264.3048,8.3328e-05,1.039e-05,0.0,0 STARLINK-4730,1 53794U 22111X   23163.17539891  .00001039  00000-0  83328-4 0  9994,2 53794  53.2167  89.9399 0001042  95.8063 264.3048 15.08842701 41692,6917.872,95.437,540.458,539.016,0.0
53794.0,STARLINK-4730,PAYLOAD,2023-06-12 12:09:30,15.08840698,9.98e-05,53.2163,88.4519,84.2287,275.8819,1.5927e-05,-3.4e-07,0.0,0 STARLINK-4730,1 53794U 22111X   23163.50660261 -.00000034  00000-0  15927-4 0  9992,2 53794  53.2163  88.4519 0000998  84.2287 275.8819 15.08840698 42546,6917.878,95.438,540.434,539.053,0.0
53794.0,STARLINK-4730,PAYLOAD,2023-06-12 23:17:13,15.08830013,0.0001059,53.217,86.3708,89.5581,270.5532,1.2991e-06,-2.67e-06,0.0,0 STARLINK-4730,1 53794U 22111X   23163.97029170 -.00000267  00000-0  12991-5 0  9998,2 53794  53.2170  86.3708 0001059  89.5581 270.5532 15.08830013 41818,6917.911,95.438,540.509,539.043,0.0
53794.0,STARLINK-4730,PAYLOAD,2023-06-13 18:21:50,15.08839219,0.0001234,53.2172,82.8023,88.3699,271.7434,2.6081e-05,1.27e-06,0.0,0 STARLINK-4730,1 53794U 22111X   23164.76516700  .00000127  00000-0  26081-4 0  9994,2 53794  53.2172  82.8023 0001234  88.3699 271.7434 15.08839219 41937,6917.883,95.438,540.601,538.894,0.0
53794.0,STARLINK-4730,PAYLOAD,2023-06-14 00:43:22,15.08842179,0.0001182,53.2169,81.6134,88.8663,271.2465,5.0555e-05,5.17e-06,0.0,0 STARLINK-4730,1 53794U 22111X   23165.03012380  .00000517  00000-0  50555-4 0  9996,2 53794  53.2169  81.6134 0001182  88.8663 271.2465 15.08842179 42772,6917.874,95.437,540.556,538.921,0.0
53794.0,STARLINK-4730,PAYLOAD,2023-06-14 19:48:00,15.08836125,0.0001207,53.2169,78.0447,88.355,271.758,8.1713e-05,1.013e-05,0.0,0 STARLINK-4730,1 53794U 22111X   23165.82500648  .00001013  00000-0  81713-4 0  9994,2 53794  53.2169  78.0447 0001207  88.3550 271.7580 15.08836125 42897,6917.892,95.438,540.592,538.922,0.0
53794.0,STARLINK-4730,PAYLOAD,2023-06-15 00:34:09,15.0884045,0.0001192,53.2169,77.1525,89.5198,270.5931,0.00011505,1.544e-05,0.0,0 STARLINK-4730,1 53794U 22111X   23166.02372286  .00001544  00000-0  11505-3 0  9992,2 53794  53.2169  77.1525 0001192  89.5198 270.5931 15.08840450 42127,6917.879,95.438,540.569,538.919,0.0
53794.0,STARLINK-4730,PAYLOAD,2023-06-15 03:44:55,15.08843504,0.000122,53.2171,76.5574,93.2878,266.8254,7.0018e-05,8.27e-06,0.0,0 STARLINK-4730,1 53794U 22111X   23166.15620215  .00000827  00000-0  70018-4 0  9992,2 53794  53.2171  76.5574 0001220  93.2878 266.8254 15.08843504 42945,6917.87,95.437,540.579,538.891,0.0
53794.0,STARLINK-4730,PAYLOAD,2023-06-15 18:03:24,15.08838186,0.0001301,53.2171,73.8804,98.4338,261.6801,-8.4773e-06,-4.23e-06,0.0,0 STARLINK-4730,1 53794U 22111X   23166.75236832 -.00000423  00000-0 -84773-5 0  9994,2 53794  53.2171  73.8804 0001301  98.4338 261.6801 15.08838186 42232,6917.886,95.438,540.651,538.851,0.0
53794.0,STARLINK-4730,PAYLOAD,2023-06-16 00:24:56,15.08844847,0.0001103,53.2163,72.6904,97.8138,262.2979,2.4523e-05,1.03e-06,0.0,0 STARLINK-4730,1 53794U 22111X   23167.01732263  .00000103  00000-0  24523-4 0  9992,2 53794  53.2163  72.6904 0001103  97.8138 262.2979 15.08844847 42270,6917.866,95.437,540.494,538.968,0.0
53794.0,STARLINK-4730,PAYLOAD,2023-06-16 03:35:42,15.08847825,0.0001075,53.2161,72.0951,98.4675,261.6439,3.9678e-05,3.44e-06,0.0,0 STARLINK-4730,1 53794U 22111X   23167.14979988  .00000344  00000-0  39678-4 0  9997,2 53794  53.2161  72.0951 0001075  98.4675 261.6439 15.08847825 43099,6917.856,95.437,540.465,538.978,0.0
53794.0,STARLINK-4730,PAYLOAD,2023-06-16 17:54:10,15.08846001,0.0001062,53.2162,69.4179,104.7782,255.3328,1.8966e-05,1.4e-07,0.0,0 STARLINK-4730,1 53794U 22111X   23167.74595989  .00000014  00000-0  18966-4 0  9999,2 53794  53.2162  69.4179 0001062 104.7782 255.3328 15.08846001 43180,6917.862,95.437,540.462,538.992,0.0
53794.0,STARLINK-4730,PAYLOAD,2023-06-17 01:51:05,15.08852477,0.0001084,53.2169,67.9325,88.8151,271.2965,0.00010625,1.404e-05,0.0,0 STARLINK-4730,1 53794U 22111X   23168.07715196  .00001404  00000-0  10625-3 0  9997,2 53794  53.2169  67.9325 0001084  88.8151 271.2965 15.08852477 42434,6917.842,95.437,540.457,538.957,0.0
53794.0,STARLINK-4730,PAYLOAD,2023-06-17 09:48:03,15.08828089,0.0001518,53.2165,66.4442,87.6786,272.438,-4.8118e-05,-1.053e-05,0.0,0 STARLINK-4730,1 53794U 22111X   23168.40837391 -.00001053  00000-0 -48118-4 0  9997,2 53794  53.2165  66.4442 0001518  87.6786 272.4380 15.08828089 42488,6917.917,95.438,540.832,538.732,0.0
53794.0,STARLINK-4730,PAYLOAD,2023-06-17 17:44:59,15.08830227,0.0001524,53.2164,64.9573,87.4792,272.6375,-7.6683e-05,-1.508e-05,0.0,0 STARLINK-4730,1 53794U 22111X   23168.73957568 -.00001508  00000-0 -76683-4 0  9995,2 53794  53.2164  64.9573 0001524  87.4792 272.6375 15.08830227 43335,6917.91,95.438,540.83,538.721,0.0
53794.0,STARLINK-4730,PAYLOAD,2023-06-18 09:38:50,15.08832963,0.0001108,53.2179,61.9882,113.3434,246.7675,-3.4097e-05,-8.3e-06,0.0,0 STARLINK-4730,1 53794U 22111X   23169.40197652 -.00000830  00000-0 -34097-4 0  9990,2 53794  53.2179  61.9882 0001108 113.3434 246.7675 15.08832963 42637,6917.902,95.438,540.533,539.0,0.0
53794.0,STARLINK-4730,PAYLOAD,2023-06-18 17:35:45,15.088426,9.73e-05,53.2175,60.5008,96.7274,263.3829,2.0228e-05,3.4e-07,0.0,0 STARLINK-4730,1 53794U 22111X   23169.73317079  .00000034  00000-0  20228-4 0  9998,2 53794  53.2175  60.5008 0000973  96.7274 263.3829 15.08842600 42683,6917.872,95.437,540.411,539.064,0.0
53794.0,STARLINK-4730,PAYLOAD,2023-06-18 19:11:08,15.08844228,9.67e-05,53.2172,60.2033,97.7423,262.3679,4.2014e-05,3.81e-06,0.0,0 STARLINK-4730,1 53794U 22111X   23169.79940935  .00000381  00000-0  42014-4 0  9999,2 53794  53.2172  60.2033 0000967  97.7423 262.3679 15.08844228 43495,6917.867,95.437,540.401,539.064,0.0
53794.0,STARLINK-4730,PAYLOAD,2023-06-19 01:32:41,15.08850337,9.45e-05,53.217,59.0136,94.7915,265.3185,0.00011849,1.599e-05,0.0,0 STARLINK-4730,1 53794U 22111X   23170.06436469  .00001599  00000-0  11849-3 0  9996,2 53794  53.2170  59.0136 0000945  94.7915 265.3185 15.08850337 42731,6917.849,95.437,540.368,539.06,0.0
53794.0,STARLINK-4730,PAYLOAD,2023-06-19 09:29:37,15.08846302,9.37e-05,53.2166,57.5276,99.5866,260.5232,0.00013925,1.929e-05,0.0,0 STARLINK-4730,1 53794U 22111X   23170.39556815  .00001929  00000-0  13925-3 0  9994,2 53794  53.2166  57.5276 0000937  99.5866 260.5232 15.08846302 42785,6917.861,95.437,540.374,539.078,0.0
53794.0,STARLINK-4730,PAYLOAD,2023-06-20 01:23:28,15.08839823,8.91e-05,53.2167,54.5531,100.0339,260.0754,0.00021964,3.21e-05,0.0,0 STARLINK-4730,1 53794U 22111X   23171.05797370  .00003210  00000-0  21964-3 0  9998,2 53794  53.2167  54.5531 0000891 100.0339 260.0754 15.08839823 42884,6917.881,95.438,540.362,539.13,0.0
53794.0,STARLINK-4730,PAYLOAD,2023-06-20 09:20:24,15.08843975,0.0001163,53.2171,53.0654,82.5728,277.5397,0.00019573,2.829e-05,0.0,0 STARLINK-4730,1 53794U 22111X   23171.38917331  .00002829  00000-0  19573-3 0  9993,2 53794  53.2171  53.0654 0001163  82.5728 277.5397 15.08843975 43732,6917.868,95.437,540.538,538.929,0.0
53794.0,STARLINK-4730,PAYLOAD,2023-06-20 20:28:06,15.08843861,9.88e-05,53.2161,50.9853,82.6832,277.4272,8.951e-05,1.137e-05,0.0,0 STARLINK-4730,1 53794U 22111X   23171.85285135  .00001137  00000-0  89510-4 0  9995,2 53794  53.2161  50.9853 0000988  82.6832 277.4272 15.08843861 43802,6917.869,95.437,540.417,539.05,0.0
53794.0,STARLINK-4730,PAYLOAD,2023-06-20 23:38:52,15.08846266,9.92e-05,53.2164,50.3901,80.5437,279.5667,0.00011454,1.536e-05,0.0,0 STARLINK-4730,1 53794U 22111X   23171.98533010  .00001536  00000-0  11454-3 0  9991,2 53794  53.2164  50.3901 0000992  80.5437 279.5667 15.08846266 43821,6917.861,95.437,540.412,539.04,0.0
53794.0,STARLINK-4730,PAYLOAD,2023-06-21 20:18:53,15.08837328,0.0001054,53.2164,46.5253,76.6763,283.4347,5.118e-05,5.27e-06,0.0,0 STARLINK-4730,1 53794U 22111X   23172.84645515  .00000527  00000-0  51180-4 0  9991,2 53794  53.2164  46.5253 0001054  76.6763 283.4347 15.08837328 43958,6917.889,95.438,540.483,539.024,0.0
53794.0,STARLINK-4730,PAYLOAD,2023-06-21 21:54:16,15.0884053,9.4e-05,53.2164,46.2271,85.2342,274.8758,3.7587e-05,3.11e-06,0.0,0 STARLINK-4730,1 53794U 22111X   23172.91269399  .00000311  00000-0  37587-4 0  9997,2 53794  53.2164  46.2271 0000940  85.2342 274.8758 15.08840530 43169,6917.879,95.438,540.394,539.093,0.0
53794.0,STARLINK-4730,PAYLOAD,2023-06-22 23:20:26,15.08845557,0.0001007,53.2166,41.4693,78.9865,281.1241,0.00017513,2.501e-05,0.0,0 STARLINK-4730,1 53794U 22111X   23173.97253414  .00002501  00000-0  17513-3 0  9994,2 53794  53.2166  41.4693 0001007  78.9865 281.1241 15.08845557 43320,6917.863,95.437,540.425,539.032,0.0
53794.0,STARLINK-4730,PAYLOAD,2023-06-24 00:46:36,15.08849353,0.0001085,53.2176,36.7091,89.474,270.6376,0.000257,3.806e-05,0.0,0 STARLINK-4730,1 53794U 22111X   23175.03237162  .00003806  00000-0  25700-3 0  9991,2 53794  53.2176  36.7091 0001085  89.4740 270.6376 15.08849353 43482,6917.852,95.437,540.467,538.966,0.0
53794.0,STARLINK-4730,PAYLOAD,2023-06-24 21:26:38,15.08840706,0.0001068,53.217,32.8473,87.3531,272.7583,9.6362e-05,1.246e-05,0.0,0 STARLINK-4730,1 53794U 22111X   23175.89349639  .00001246  00000-0  96362-4 0  9997,2 53794  53.2170  32.8473 0001068  87.3531 272.7583 15.08840706 43614,6917.878,95.438,540.482,539.004,0.0
